import { expect, test } from 'bun:test'
import fs from 'fs/promises'
import type { PositionAndVelocity } from '../src/astrometry'
import { DAYMIN } from '../src/constants'
import { toKilometer } from '../src/distance'
import { itrfToTemeByGmst, temeToItrfByGmst } from '../src/frame'
import { vector } from '../src/horizons'
import { fileHandleSource, readLines } from '../src/io'
import { type DsInitOptions, internal, type MeanElements, parseTLE, recordFromOMM, recordFromTLE, sgp4 } from '../src/sgp4'
import { Timescale, timeYMDHMS } from '../src/time'
import { toKilometerPerSecond } from '../src/velocity'

const ISS_TLE = parseTLE('1 25544U 98067A   23231.51768399  .00014050  00000+0  25837-3 0  9996', '2 25544  51.6415  14.7889 0003559 325.3396 149.4637 15.49477580411611', 'ISS (ZARYA)')

const ISS_OMM = {
	OBJECT_NAME: 'ISS (ZARYA)',
	OBJECT_ID: '1998-067A',
	EPOCH: '2023-08-19T12:25:27.896736',
	MEAN_MOTION: 15.4947758,
	ECCENTRICITY: 0.0003559,
	INCLINATION: 51.6415,
	RA_OF_ASC_NODE: 14.7889,
	ARG_OF_PERICENTER: 325.3396,
	MEAN_ANOMALY: 149.4637,
	EPHEMERIS_TYPE: 0,
	NORAD_CAT_ID: 25544,
	ELEMENT_SET_NO: 999,
	REV_AT_EPOCH: 41161,
	BSTAR: 0.00025837,
	MEAN_MOTION_DOT: 0.0001405,
	MEAN_MOTION_DDOT: 0,
} as const

const VALLADO_CASES = [
	{
		title: 'SGP4 (LEO) Test TLE',
		tle: parseTLE('1 88888U          80275.98708465  .00073094  13844-3  66816-4 0    8', '2 88888  72.8435 115.9689 0086731  52.6988 110.5714 16.05824518  105'),
		results: [
			{ time: 0, position: [2328.97048951, -5995.22076416, 1719.97067261], velocity: [2.9120723, -0.98341546, -7.09081703] },
			{ time: 360, position: [2456.10705566, -6071.9385376, 1222.89727783], velocity: [2.67938992, -0.44829041, -7.22879231] },
			{ time: 720, position: [2567.56195068, -6112.50384522, 713.963974], velocity: [2.44024599, 0.09810869, -7.31995916] },
			{ time: 1080, position: [2663.0907898, -6115.4822998, 196.39640427], velocity: [2.19611958, 0.65241995, -7.36282432] },
			{ time: 1440, position: [2742.55133057, -6079.67144775, -326.38095856], velocity: [1.94850229, 1.21106251, -7.35619372] },
		],
	},
	{
		title: 'SDP4 (Deep Space) Test TLE',
		tle: parseTLE('1 11801U          80230.29629788  .01431103  00000-0  14311-1        ', '2 11801  46.7916 230.4354 7318036  47.4722  10.4117  2.28537848      '),
		results: [
			{ time: 0, position: [7473.3706665, 428.95261765, 5828.74786377], velocity: [5.10715413, 6.44468284, -0.18613096] },
			{ time: 360, position: [-3305.22537232, 32410.86328125, -24697.17675781], velocity: [-1.30113538, -1.15131518, -0.28333528] },
			{ time: 720, position: [14271.28759766, 24110.46411133, -4725.76837158], velocity: [-0.32050445, 2.67984074, -2.08405289] },
			{ time: 1080, position: [-9990.05883789, 22717.35522461, -23616.89062501], velocity: [-1.01667246, -2.29026759, 0.72892364] },
			{ time: 1440, position: [9787.86975097, 33753.34667969, -15030.81176758], velocity: [-1.09425066, 0.92358845, -1.52230928] },
		],
	},
] as const

test('parse TLE', () => {
	expect(ISS_TLE.name).toBe('ISS (ZARYA)')
	expect(ISS_TLE.satelliteNumber).toBe('25544')
	expect(ISS_TLE.epochYear).toBe(23)
	expect(ISS_TLE.epochDays).toBeCloseTo(231.51768399, 10)
	expect(ISS_TLE.eccentricity).toBeCloseTo(0.0003559, 12)
	expect(ISS_TLE.meanMotion).toBeCloseTo(15.4947758, 7)
})

test('OMM and TLE produce matching state near epoch', () => {
	const tleRecord = recordFromTLE(ISS_TLE)
	const ommRecord = recordFromOMM(ISS_OMM)
	const tleState = sgp4(ISS_TLE.epoch, tleRecord)
	const ommState = sgp4(ISS_TLE.epoch, ommRecord)
	const tlePositionKm = tleState[0].map(toKilometer)
	const ommPositionKm = ommState[0].map(toKilometer)
	const tleVelocityKms = tleState[1].map(toKilometerPerSecond)
	const ommVelocityKms = ommState[1].map(toKilometerPerSecond)

	expectVector(tlePositionKm, ommPositionKm, 5)
	expectVector(tleVelocityKms, ommVelocityKms, 7)
})

test('invalid OMM propagation throws', () => {
	expect(() => sgp4(ISS_TLE.epoch, { ...ISS_OMM, ECCENTRICITY: 1.2 })).toThrow()
})

for (const { title, tle, results } of VALLADO_CASES) {
	for (const sample of results) {
		test(`${title} at ${sample.time} min`, () => {
			const time = { day: tle.epoch.day, fraction: tle.epoch.fraction + sample.time / DAYMIN, scale: 1 }
			const state = sgp4(time, tle)
			const positionKm = state[0].map(toKilometer)
			const velocityKms = state[1].map(toKilometerPerSecond)
			expectVector(positionKm, sample.position, 1)
			expectVector(velocityKms, sample.velocity, 4)
		})
	}
}

test('TEME to ITRF by GMST matches reference rotation', () => {
	const itrf = temeToItrfByGmst([6400, 0, 0], 10)
	expectVector(itrf as unknown as number[], [-5370.057786089295, 3481.7351096919665, 0], 9)
})

test('ITRF to TEME by GMST matches reference rotation', () => {
	const teme = itrfToTemeByGmst([5555, 3000, 0], 100)
	expectVector(teme as unknown as number[], [6309.278258887361, -225.90451950165834, 0], 9)
})

test('TEME and ITRF state conversion round-trips', () => {
	const state: PositionAndVelocity = [
		[7000, -1200, 3400],
		[1.5, 6.9, -2.1],
	]

	const gmst = 1.2345
	const itrf = temeToItrfByGmst(state, gmst)
	const teme = itrfToTemeByGmst(itrf, gmst)

	expectVector(teme[0], state[0], 9)
	expectVector(teme[1], state[1], 9)
})

test('vector elements by JPL Horizons', () => {
	const tle = parseTLE('1 25544U 98067A   26070.19118651  .00009215  00000+0  17770-3 0  9998', '2 25544  51.6325  64.9326 0007932 179.9008 180.1983 15.48575655556567', 'ISS (ZARYA)')
	const time = timeYMDHMS(2026, 3, 11, 0, 0, 0, Timescale.TDB)
	const [p, v] = sgp4(time, tle)

	// JPL Horizons:
	// Output units: AU and AU/day
	// Output type: GEOMETRIC cartesian states
	// Reference frame: ICRF
	expect(p[0]).toBeCloseTo(1.459950950729029e-5, 6)
	expect(p[1]).toBeCloseTo(4.27203155142363e-5, 6)
	expect(p[2]).toBeCloseTo(5.523957827183497e-6, 6)
	expect(v[0]).toBeCloseTo(-2.744523449434552e-3, 4)
	expect(v[1]).toBeCloseTo(4.892062429322461e-4, 4)
	expect(v[2]).toBeCloseTo(3.431067191069624e-3, 4)
})

test('legacy sidereal time', () => {
	const options = {
		ecco: 0.1846988,
		epochday: 25938,
		epochfrac: 0.538312919904,
		inclo: 0,
		method: 'n',
		no: 0.0037028783237264057,
		opsmode: 'a',
		satn: '00001',
	} as const

	const results = internal.initl(options)
	expect(results.ainv).toBeCloseTo(0.1353414893496189, 6)
	expect(results.ao).toBeCloseTo(7.3887172721793, 5)
	expect(results.con41).toBe(2)
	expect(results.con42).toBe(-4)
	expect(results.cosio).toBe(1)
	expect(results.cosio2).toBe(1)
	expect(results.eccsq).toBeCloseTo(0.034113646721439995, 12)
	expect(results.gsto).toBeCloseTo(5.220883431398299, 12)
	expect(results.method).toBe('n')
	expect(results.no).toBeCloseTo(0.003702762286531528, 10)
	expect(results.omeosq).toBeCloseTo(0.96588635327856, 10)
	expect(results.posq).toBeCloseTo(50.931932818552305, 3)
	expect(results.rp).toBeCloseTo(6.02403005846851, 5)
	expect(results.rteosq).toBeCloseTo(0.9827951736137902, 10)
	expect(results.sinio).toBe(0)
})

test('geopotential resonance for 12 hour orbits', () => {
	let options: DsInitOptions = {
		argpm: 0,
		argpo: 3.1731953303556546,
		atime: 0,
		cosim: 0.8265818908073872,
		d2201: 0,
		d2211: 0,
		d3210: 0,
		d3222: 0,
		d4410: 0,
		d4422: 0,
		d5220: 0,
		d5232: 0,
		d5421: 0,
		d5433: 0,
		dedt: 0,
		del1: 0,
		del2: 0,
		del3: 0,
		didt: 0,
		dmdt: 0,
		dnodt: 0,
		domdt: 0,
		ecco: 0.5,
		eccsq: 0.25,
		em: 0.5,
		emsq: 0.25,
		gsto: 5.220883431349307,
		inclm: 0.5977892314420737,
		irez: 0,
		mdot: 0.008289877617360376,
		mm: 0,
		mo: 3.097818050620523,
		nm: 0.00828929401348305,
		no: 0.00828929401348305,
		nodedot: -0.0000010615465631002147,
		nodem: 0,
		nodeo: 5.684425672673404,
		s1: -0.0003758603820133531,
		s2: -0.00003340981173452028,
		s3: 0.000057867491395499995,
		s4: 0.00005011471760178041,
		s5: -0.0814586266145132,
		sinim: 0.5628164690103556,
		ss1: -0.0023400973145719425,
		ss2: -0.0002080086501841727,
		ss3: 0.0003602815505328084,
		ss4: 0.000312012975276259,
		ss5: -0.05506592822076295,
		sz1: 10.0266126658567,
		sz3: 11.96755448889018,
		sz11: -0.26695105200172087,
		sz13: 2.85835691924874,
		sz21: -0.10879395395455185,
		sz23: -0.9817900146669546,
		sz31: 3.2268633174603867,
		sz33: 5.297255866008874,
		t: 0,
		tc: 0,
		xfact: 0,
		xlamo: 0,
		xli: 0,
		xni: 0,
		xpidot: 4.898991347062741e-7,
		z1: 4.101694478238579,
		z3: 16.932733892867283,
		z11: 1.429557720331177,
		z13: 1.9707634473989213,
		z21: -1.4644752902058293,
		z23: 0.2884276608142515,
		z31: -0.8856293737107999,
		z33: 8.908977597159325,
	} as const

	let results: ReturnType<typeof internal.dsInit> = {
		argpm: 0,
		atime: 0,
		d2201: -1.2099438856510436e-11,
		d2211: 1.0011494893832913e-11,
		d3210: -5.086681199981555e-12,
		d3222: -3.9879779675343986e-13,
		d4410: 4.10948324131911e-13,
		d4422: 9.349597736749112e-14,
		d5220: 2.4097823461671757e-13,
		d5232: 1.6478747122823163e-13,
		d5421: -2.1387372659636362e-13,
		d5433: -9.311219761949575e-15,
		dedt: 6.387624124699951e-9,
		del1: 0,
		del2: 0,
		del3: 0,
		didt: -2.4428711570103973e-8,
		dmdt: -7.866458523057076e-8,
		dndt: 0,
		dnodt: -1.5869893761619698e-8,
		domdt: 3.8582690952174514e-8,
		em: 0.5,
		inclm: 0.5977892314420737,
		irez: 2,
		mm: 0,
		nm: 0.00828929401348305,
		nodem: 0,
		xfact: -0.008752188069644229,
		xlamo: 4.024902533268717,
		xli: 4.024902533268717,
		xni: 0.00828929401348305,
	} as const

	expect(internal.dsInit(options)).toEqual(results)

